OBJECT_NAME,OBJECT_ID,EPOCH,MEAN_MOTION,ECCENTRICITY,INCLINATION,RA_OF_ASC_NODE,ARG_OF_PERICENTER,MEAN_ANOMALY,EPHEMERIS_TYPE,CLASSIFICATION_TYPE,NORAD_CAT_ID,ELEMENT_SET_NO,REV_AT_EPOCH,BSTAR,MEAN_MOTION_DOT,MEAN_MOTION_DDOT
STARLINK-37384,2026-127T,2026-06-18T22:00:01.999584,15.80891147,.000098,53.1583,253.4983,75.1125,217.6578,0,U,69460,999,292,-.13243751E-3,-.26778E-3,0
STARLINK-37707,2026-127U,2026-06-18T22:00:01.999584,15.80891427,.00007905,53.1586,253.4328,84.7375,239.6263,0,U,69461,999,292,-.30485693E-3,-.60496E-3,0
STARLINK-37525,2026-127V,2026-06-18T22:00:01.999584,15.80879815,.00011229,53.1588,253.4310,70.8335,254.3395,0,U,69462,999,292,-.1156767E-3,-.23475E-3,0
STARLINK-37526,2026-127W,2026-06-18T22:00:01.999584,15.80954513,.00009645,53.1587,253.4236,62.7130,266.0010,0,U,69463,999,292,-.67924662E-3,-.133211E-2,0
STARLINK-37574,2026-127X,2026-06-18T22:00:01.999584,15.81996531,.00006109,53.1587,253.3439,72.8323,294.3727,0,U,69464,999,292,-.80559547E-2,-.1480978E-1,0
STARLINK-37535,2026-127Y,2026-06-18T22:00:01.999584,15.80866896,.00008213,53.1591,253.3645,43.6324,313.5427,0,U,69465,999,292,.25254367E-4,.4287E-4,0
STARLINK-37583,2026-127Z,2026-06-18T22:00:01.999584,15.83559502,.00008782,53.1579,253.2439,77.9085,337.2033,0,U,69466,999,292,-.99243681E-2,-.1936378E-1,0
STARLINK-37546,2026-127AA,2026-06-18T22:00:01.999584,15.84227727,.00011426,53.1579,253.2200,51.2913,15.2401,0,U,69467,999,292,-.10733969E-1,-.2129831E-1,0
STARLINK-37532,2026-127AB,2026-06-18T22:00:01.999584,15.83095465,.00008092,53.1583,253.2276,55.7938,6.9230,0,U,69468,999,292,-.11155156E-1,-.2100516E-1,0
STARLINK-37708,2026-127AC,2026-06-18T22:00:01.999584,15.83374009,.00008074,53.1576,253.2127,81.8646,347.8739,0,U,69469,999,292,-.11082971E-1,-.2112832E-1,0
STARLINK-37686,2026-127AD,2026-06-18T22:00:01.999584,15.83759507,.00007606,53.1581,253.1909,73.5534,7.0141,0,U,69470,999,292,-.99552155E-2,-.1957733E-1,0
STARLINK-37451,2026-127AE,2026-06-18T22:00:01.999584,15.84625486,.00010364,53.1577,253.1701,43.6645,46.5508,0,U,69471,999,292,-.11158109E-1,-.2236779E-1,0
DTC TEST OBJECT A,2026-128A,2026-06-18T20:07:24.019680,15.55903712,.00086159,54.9939,297.4006,295.5156,64.4988,0,U,69472,999,148,.30728448E-3,.21253E-3,0
DTC TEST OBJECT B,2026-128B,2026-06-18T18:31:50.150208,15.56373019,.0008674,55.0030,297.6924,296.1431,63.8713,0,U,69473,999,146,.40094536E-3,.284E-3,0
TJS-25,2026-129A,2026-06-11T11:34:53.014656,1.72502163,.7751889,16.5302,30.5351,199.9639,91.9387,0,U,69474,999,7,.19774E-2,.7407E-4,0
STARLINK-37816,2026-131A,2026-06-17T18:00:02.999808,15.96316495,.00011495,97.2824,188.9762,80.4448,35.9636,0,U,69478,999,210,-.2655077E-2,-.1093379E-1,.37145704E-3
STARLINK-37878,2026-131B,2026-06-17T10:00:01.999584,15.97036350,.00008726,97.2817,188.6149,97.2660,265.8231,0,U,69479,999,131,-.22776066E-2,-.976144E-2,.30334162E-3
STARLINK-37817,2026-131C,2026-06-17T18:00:02.999808,15.96547425,.00011812,97.2822,188.9776,77.8521,42.4103,0,U,69480,999,210,-.26268227E-2,-.1095329E-1,.37360476E-3
STARLINK-37727,2026-131D,2026-06-17T18:00:02.999808,15.96671350,.00011745,97.2819,188.9784,76.6396,45.7078,0,U,69481,999,210,-.26175375E-2,-.1098784E-1,.37628858E-3
STARLINK-37814,2026-131E,2026-06-17T18:00:02.999808,15.96778578,.00011811,97.2821,188.9793,77.2384,46.9070,0,U,69482,999,210,-.26030553E-2,-.1099082E-1,.37691003E-3
STARLINK-37869,2026-131F,2026-06-17T18:00:02.999808,15.96910777,.00011494,97.2820,188.9802,76.2430,50.1342,0,U,69483,999,210,-.2603614E-2,-.1107172E-1,.38260644E-3
STARLINK-37873,2026-131G,2026-06-17T18:00:02.999808,15.97024990,.00011606,97.2820,188.9809,76.2701,51.9896,0,U,69484,999,210,-.25920221E-2,-.1109103E-1,.3843137E-3
STARLINK-37892,2026-131H,2026-06-17T18:00:02.999808,15.97108252,.00011498,97.2819,188.9816,78.7411,50.8476,0,U,69485,999,210,-.25572949E-2,-.1099303E-1,.37838735E-3
STARLINK-37893,2026-131J,2026-06-17T18:00:02.999808,15.97225915,.00011655,97.2818,188.9823,77.5835,53.9573,0,U,69486,999,218,-.25487385E-2,-.1102657E-1,.3810102E-3
STARLINK-37842,2026-131K,2026-06-17T20:00:01.999872,15.97137733,.0001069,97.2817,189.0737,79.0004,173.2061,0,U,69487,999,211,-.24442105E-2,-.1052755E-1,.34935296E-3
STARLINK-37449,2026-131L,2026-06-17T20:00:01.999872,15.97254920,.00010931,97.2818,189.0744,79.7938,174.4151,0,U,69488,999,220,-.24338781E-2,-.1055018E-1,.35118975E-3
STARLINK-37831,2026-131M,2026-06-17T10:00:01.999584,15.98221671,.00009334,97.2813,188.6216,90.8599,290.4087,0,U,69489,999,131,-.21761412E-2,-.995223E-2,.31852185E-3
STARLINK-37879,2026-131N,2026-06-17T20:00:01.999872,15.97486806,.00010973,97.2816,189.0761,79.1630,178.9501,0,U,69490,999,211,-.24145498E-2,-.1059963E-1,.35513589E-3
STARLINK-37856,2026-131P,2026-06-17T20:00:01.999872,15.97605672,.00011136,97.2816,189.0765,78.4450,181.6887,0,U,69491,999,217,-.24065046E-2,-.1063313E-1,.35767922E-3
